NORAD_CAT_ID,OBJECT_NAME,OBJECT_TYPE,EPOCH,MEAN_MOTION,ECCENTRICITY,INCLINATION,RA_OF_ASC_NODE,ARG_OF_PERICENTER,MEAN_ANOMALY,BSTAR,MEAN_MOTION_DOT,MEAN_MOTION_DDOT,TLE_LINE0,TLE_LINE1,TLE_LINE2,SEMIMAJOR_AXIS,PERIOD,APOGEE,PERIGEE,DECAYED
53278.0,STARLINK-4180,PAYLOAD,2022-09-08 22:00:00,15.73283976,0.0002094,53.2171,173.787,20.1822,1.0078,-0.00060259,-0.00084656,0.0,0 STARLINK-4180,1 53278U 22086AN  22251.91667824 -.00084656  00000-0 -60259-3 0  9994,2 53278  53.2171 173.7870 0002094  20.1822   1.0078 15.73283976  1300,6727.656,91.528,350.93,348.112,0.0
53278.0,STARLINK-4180,PAYLOAD,2022-09-09 04:00:00,15.73232333,0.0002269,53.2169,172.5512,19.7665,338.1978,-0.00032316,-0.00045797,0.0,0 STARLINK-4180,1 53278U 22086AN  22252.16667824 -.00045797  00000-0 -32316-3 0  9998,2 53278  53.2169 172.5512 0002269  19.7665 338.1978 15.73232333  7962,6727.803000000001,91.531,351.195,348.141,0.0
53278.0,STARLINK-4180,PAYLOAD,2022-09-09 14:00:01,15.73218902,0.0002041999999999,53.2166,170.4873,25.2022,173.9533,-7.528399999999999e-05,-0.00011182,0.0,0 STARLINK-4180,1 53278U 22086AN  22252.58334491 -.00011182  00000-0 -75284-4 0  9998,2 53278  53.2166 170.4873 0002042  25.2022 173.9533 15.73218902  1304,6727.840999999999,91.532,351.08,348.332,0.0
53278.0,STARLINK-4180,PAYLOAD,2022-09-09 22:00:00,15.73217921,0.0002078,53.2168,168.8386,28.5056,259.594,7.5855e-05,0.00010046,0.0,0 STARLINK-4180,1 53278U 22086AN  22252.91667824  .00010046  00000-0  75855-4 0  9994,2 53278  53.2168 168.8386 0002078  28.5056 259.5940 15.73217921  1301,6727.844,91.532,351.107,348.311,0.0
53278.0,STARLINK-4180,PAYLOAD,2022-09-10 14:00:01,15.73155915,0.0002056999999999,53.2172,165.5391,27.4403,78.5291,0.00015108,0.00020595,0.0,0 STARLINK-4180,1 53278U 22086AN  22253.58334491  .00020595  00000-0  15108-3 0  9993,2 53278  53.2172 165.5391 0002057  27.4403  78.5291 15.73155915  1309,6728.021,91.536,351.27,348.50199999999984,0.0
53278.0,STARLINK-4180,PAYLOAD,2022-09-10 20:00:01,15.73189979,0.0002142,53.2174,164.3023,32.3295,50.2921,-3.317e-05,-5.272e-05,0.0,0 STARLINK-4180,1 53278U 22086AN  22253.83334491 -.00005272  00000-0 -33170-4 0  9998,2 53278  53.2174 164.3023 0002142  32.3295  50.2921 15.73189979  8232,6727.924,91.534,351.23,348.348,0.0
53278.0,STARLINK-4180,PAYLOAD,2022-09-10 22:00:00,15.73214451,0.0002162,53.2172,163.8906,30.6018,164.2449,-0.00041165,-0.00058038,0.0,0 STARLINK-4180,1 53278U 22086AN  22253.91667824 -.00058038  00000-0 -41165-3 0  9996,2 53278  53.2172 163.8906 0002162  30.6018 164.2449 15.73214451  1306,6727.854,91.532,351.1740000000001,348.264,0.0
53278.0,STARLINK-4180,PAYLOAD,2022-09-11 14:00:01,15.73187883,0.0001942,53.2165,160.5907,28.5067,344.1919,0.00070944,0.0010009,0.0,0 STARLINK-4180,1 53278U 22086AN  22254.58334491  .00100090  00000-0  70944-3 0  9992,2 53278  53.2165 160.5907 0001942  28.5067 344.1919 15.73187883  1307,6727.93,91.534,351.101,348.48800000000006,0.0
53278.0,STARLINK-4180,PAYLOAD,2022-09-11 22:00:00,15.73268199,0.0002044,53.2165,158.9424,30.3379,71.3159,-0.00046737,-0.00065899,0.0,0 STARLINK-4180,1 53278U 22086AN  22254.91667824 -.00065899  00000-0 -46737-3 0  9990,2 53278  53.2165 158.9424 0002044  30.3379  71.3159 15.73268199  8406,6727.701,91.529,350.941,348.191,0.0
53278.0,STARLINK-4180,PAYLOAD,2022-09-12 06:00:00,15.73191481,0.0002166999999999,53.2164,157.2939,27.1762,163.4207,0.0001356,0.00018445,0.0,0 STARLINK-4180,1 53278U 22086AN  22255.25001157  .00018445  00000-0  13560-3 0  9990,2 53278  53.2164 157.2939 0002167  27.1762 163.4207 15.73191481  8455,6727.919,91.534,351.242,348.327,0.0
53278.0,STARLINK-4180,PAYLOAD,2022-09-12 14:00:01,15.7315196,0.0002016,53.2167,155.6422,32.7912,246.7477,0.00049084,0.00068692,0.0,0 STARLINK-4180,1 53278U 22086AN  22255.58334491  .00068692  00000-0  49084-3 0  9995,2 53278  53.2167 155.6422 0002016  32.7912 246.7477 15.73151960  1308,6728.031999999997,91.536,351.254,348.541,0.0
53278.0,STARLINK-4180,PAYLOAD,2022-09-12 22:00:00,15.73230955,0.000213,53.2166,153.9939,32.5258,335.913,2.4958e-05,2.887e-05,0.0,0 STARLINK-4180,1 53278U 22086AN  22255.91667824  .00002887  00000-0  24958-4 0  9999,2 53278  53.2166 153.9939 0002130  32.5258 335.9130 15.73230955  1308,6727.807,91.531,351.105,348.23900000000015,0.0
53278.0,STARLINK-4180,PAYLOAD,2022-09-13 14:00:01,15.73196872,0.0001748,53.2158,150.6935,26.6813,159.6957,5.888600000000001e-05,7.65e-05,0.0,0 STARLINK-4180,1 53278U 22086AN  22256.58334491  .00007650  00000-0  58886-4 0  9994,2 53278  53.2158 150.6935 0001748  26.6813 159.6957 15.73196872  1301,6727.904,91.533,350.945,348.593,0.0
53278.0,STARLINK-4180,PAYLOAD,2022-09-13 16:00:00,15.73202217,0.0001743,53.2159,150.2806,29.3224,269.2857,-3.3145e-05,-5.27e-05,0.0,0 STARLINK-4180,1 53278U 22086AN  22256.66667824 -.00005270  00000-0 -33145-4 0  9991,2 53278  53.2159 150.2806 0001743  29.3224 269.2857 15.73202217  8671,6727.889,91.533,350.927,348.581,0.0
53278.0,STARLINK-4180,PAYLOAD,2022-09-13 22:00:00,15.73169713,0.0001936,53.216,149.0456,28.7523,246.5386,0.00022824,0.00031491,0.0,0 STARLINK-4180,1 53278U 22086AN  22256.91667824  .00031491  00000-0  22824-3 0  9992,2 53278  53.2160 149.0456 0001936  28.7523 246.5386 15.73169713  1300,6727.982,91.535,351.149,348.5440000000001,0.0
53278.0,STARLINK-4180,PAYLOAD,2022-09-14 14:00:01,15.73165556,0.0001716,53.2162,145.7448,26.5355,66.6607,0.00038115,0.00053133,0.0,0 STARLINK-4180,1 53278U 22086AN  22257.58334491  .00053133  00000-0  38115-3 0  9994,2 53278  53.2162 145.7448 0001716  26.5355  66.6607 15.73165556  1309,6727.993,91.535,351.01300000000015,348.704,0.0
53278.0,STARLINK-4180,PAYLOAD,2022-09-14 20:00:01,15.73232751,0.0001867,53.2164,144.5087,27.5584,42.307,-0.00061692,-0.00086444,0.0,0 STARLINK-4180,1 53278U 22086AN  22257.83334491 -.00086444  00000-0 -61692-3 0  9991,2 53278  53.2164 144.5087 0001867  27.5584  42.3070 15.73232751  8864,6727.802,91.531,350.923,348.411,0.0
53278.0,STARLINK-4180,PAYLOAD,2022-09-14 22:00:00,15.73210884,0.0001961,53.2161,144.0968,27.3742,154.7344,-0.00037249,-0.000526,0.0,0 STARLINK-4180,1 53278U 22086AN  22257.91667824 -.00052600  00000-0 -37249-3 0  9997,2 53278  53.2161 144.0968 0001961  27.3742 154.7344 15.73210884  1300,6727.864000000001,91.533,351.048,348.41,0.0
53278.0,STARLINK-4180,PAYLOAD,2022-09-15 06:00:00,15.73197437,0.000199,53.2156,142.4475,26.2178,244.8046,0.00030765,0.00042773,0.0,0 STARLINK-4180,1 53278U 22086AN  22258.25001157  .00042773  00000-0  30765-3 0  9990,2 53278  53.2156 142.4475 0001990  26.2178 244.8046 15.73197437  8925,6727.901999999999,91.533,351.106,348.42900000000014,0.0
53278.0,STARLINK-4180,PAYLOAD,2022-09-15 14:00:01,15.73211758,0.0001635,53.2157,140.7962,27.7165,332.2582,6.048699999999999e-07,-5.36e-06,0.0,0 STARLINK-4180,1 53278U 22086AN  22258.58334491 -.00000536  00000-0  60487-6 0  9995,2 53278  53.2157 140.7962 0001635  27.7165 332.2582 15.73211758  1301,6727.861999999999,91.532,350.827,348.62699999999984,0.0
53278.0,STARLINK-4180,PAYLOAD,2022-09-15 22:00:00,15.73239375,0.0001837,53.2158,139.1486,24.2836,64.6264,-0.00017882,-0.00025684,0.0,0 STARLINK-4180,1 53278U 22086AN  22258.91667824 -.00025684  00000-0 -17882-3 0  9991,2 53278  53.2158 139.1486 0001837  24.2836  64.6264 15.73239375  1304,6727.783,91.531,350.884,348.412,0.0
53278.0,STARLINK-4180,PAYLOAD,2022-09-16 00:00:00,15.73232077,0.0001915,53.2159,138.7366,25.4282,175.7064,-0.00037354,-0.00052792,0.0,0 STARLINK-4180,1 53278U 22086AN  22259.00001157 -.00052792  00000-0 -37354-3 0  9999,2 53278  53.2159 138.7366 0001915  25.4282 175.7064 15.73232077  9045,6727.804,91.531,350.957,348.38,0.0
53278.0,STARLINK-4180,PAYLOAD,2022-09-16 14:00:01,15.73128733,0.0001899999999999,53.2162,135.8476,37.81800000000001,228.9725,0.00068216,0.00095925,0.0,0 STARLINK-4180,1 53278U 22086AN  22259.58334491  .00095925  00000-0  68216-3 0  9996,2 53278  53.2162 135.8476 0001900  37.8180 228.9725 15.73128733  1306,6728.098000000001,91.537,351.242,348.685,0.0
53278.0,STARLINK-4180,PAYLOAD,2022-09-16 22:00:00,15.7319275,0.00021,53.2163,134.2001,35.686,319.9618,-3.0663e-05,-4.921e-05,0.0,0 STARLINK-4180,1 53278U 22086AN  22259.91667824 -.00004921  00000-0 -30663-4 0  9996,2 53278  53.2163 134.2001 0002100  35.6860 319.9618 15.73192750  1300,6727.916,91.534,351.194,348.36800000000005,0.0
53278.0,STARLINK-4180,PAYLOAD,2022-09-17 14:00:01,15.73172379,0.0001706999999999,53.2161,130.8995,34.2373,139.2396,0.00067139,0.00094561,0.0,0 STARLINK-4180,1 53278U 22086AN  22260.58334491  .00094561  00000-0  67139-3 0  9996,2 53278  53.2161 130.8995 0001707  34.2373 139.2396 15.73172379  1309,6727.974,91.535,350.987,348.69,0.0
53278.0,STARLINK-4180,PAYLOAD,2022-09-17 22:00:00,15.7326053,0.0001879,53.2164,129.2521,28.3293,234.0795,-0.0005154,-0.00072525,0.0,0 STARLINK-4180,1 53278U 22086AN  22260.91667824 -.00072525  00000-0 -51540-3 0  9999,2 53278  53.2164 129.2521 0001879  28.3293 234.0795 15.73260530  9340,6727.723000000001,91.53,350.852,348.3230000000001,0.0
53278.0,STARLINK-4180,PAYLOAD,2022-09-18 14:00:01,15.73265267,0.0001689,53.2168,125.9509,27.0607,53.2829,-0.00093796,-0.00130604,0.0,0 STARLINK-4180,1 53278U 22086AN  22261.58335648 -.00130604  00000-0 -93796-3 0  9991,2 53278  53.2168 125.9509 0001689  27.0607  53.2829 15.73265267  9450,6727.709,91.529,350.71,348.43800000000016,0.0
53278.0,STARLINK-4180,PAYLOAD,2022-09-18 22:00:00,15.73085525,0.0001918,53.2168,124.3034,19.9497,149.3043,-1.8164e-05,-3.156e-05,0.0,0 STARLINK-4180,1 53278U 22086AN  22261.91667824 -.00003156  00000-0 -18164-4 0  9990,2 53278  53.2168 124.3034 0001918  19.9497 149.3043 15.73085525  1306,6728.222,91.54,351.37699999999984,348.796,0.0
53278.0,STARLINK-4180,PAYLOAD,2022-09-19 06:00:02,15.73146288,0.0001821999999999,53.2165,122.6536,20.6694,237.4381,0.00071781,0.00101109,0.0,0 STARLINK-4180,1 53278U 22086AN  22262.25002315  .00101109  00000-0  71781-3 0  9994,2 53278  53.2165 122.6536 0001822  20.6694 237.4381 15.73146288  9556,6728.0480000000025,91.536,351.139,348.68699999999984,0.0
